[{"OBJECT_NAME":"SWARM B","OBJECT_ID":"2013-067A","EPOCH":"2026-03-09T22:20:48.706656","MEAN_MOTION":15.27862638,"ECCENTRICITY":0.00036996,"INCLINATION":87.749,"RA_OF_ASC_NODE":12.4162,"ARG_OF_PERICENTER":86.3179,"MEAN_ANOMALY":273.8493,"EPHEMERIS_TYPE":0,"CLASSIFICATION_TYPE":"U","NORAD_CAT_ID":39451,"ELEMENT_SET_NO":999,"REV_AT_EPOCH":66808,"BSTAR":0.00020534236,"MEAN_MOTION_DOT":5.616e-5,"MEAN_MOTION_DDOT":0},{"OBJECT_NAME":"STARLINK-30306","OBJECT_ID":"2023-122B","EPOCH":"2026-03-09T02:09:34.242624","MEAN_MOTION":15.26746046,"ECCENTRICITY":0.00014558,"INCLINATION":43.0009,"RA_OF_ASC_NODE":96.0257,"ARG_OF_PERICENTER":254.7696,"MEAN_ANOMALY":105.2994,"EPHEMERIS_TYPE":0,"CLASSIFICATION_TYPE":"U","NORAD_CAT_ID":57633,"ELEMENT_SET_NO":999,"REV_AT_EPOCH":14211,"BSTAR":7.8192912e-5,"MEAN_MOTION_DOT":1.839e-5,"MEAN_MOTION_DDOT":0}]
